{"type": "FeatureCollection", "features": [{"type": "Feature", "properties": {"norad_id": 2807, "name": "OPS 7218 (TRANSIT 16)", "group": "nnss", "lat": -25.228602689343674, "lon": -5.960548399465118, "alt_km": 1089.6694546581875, "timestamp": "2025-12-07T09:35:10.058860+00:00", "meta": {"OBJECT_NAME": "OPS 7218 (TRANSIT 16)", "OBJECT_ID": "1967-048A", "EPOCH": "2025-12-06T23:20:38.629248", "MEAN_MOTION": 13.50720658, "ECCENTRICITY": 0.0021696, "INCLINATION": 89.6732, "RA_OF_ASC_NODE": 354.2076, "ARG_OF_PERICENTER": 129.5917, "MEAN_ANOMALY": 291.5086, "EPHEMERIS_TYPE": 0, "CLASSIFICATION_TYPE": "U", "NORAD_CAT_ID": 2807, "ELEMENT_SET_NO": 999, "REV_AT_EPOCH": 88198, "BSTAR": 0.00024350574, "MEAN_MOTION_DOT": 1.67e-06, "MEAN_MOTION_DDOT": 0}, "tle": {"line1": "1 02807U 67048A   25340.97266932  .00000167  00000+0  24351-3 0  9991", "line2": "2 02807  89.6732 354.2076 0021696 129.5917 291.5086 13.50720658881981"}}, "geometry": {"type": "Point", "coordinates": [-5.960548399465118, -25.228602689343674]}}, {"type": "Feature", "properties": {"norad_id": 2965, "name": "OPS 4947 (TRANSIT 17)", "group": "nnss", "lat": -12.55546136339575, "lon": 24.675871155470393, "alt_km": 1068.0282926661184, "timestamp": "2025-12-07T09:35:10.058882+00:00", "meta": {"OBJECT_NAME": "OPS 4947 (TRANSIT 17)", "OBJECT_ID": "1967-092A", "EPOCH": "2025-12-06T22:05:41.150688", "MEAN_MOTION": 13.5345142, "ECCENTRICITY": 0.0045877, "INCLINATION": 89.2501, "RA_OF_ASC_NODE": 24.8794, "ARG_OF_PERICENTER": 251.9613, "MEAN_ANOMALY": 283.5157, "EPHEMERIS_TYPE": 0, "CLASSIFICATION_TYPE": "U", "NORAD_CAT_ID": 2965, "ELEMENT_SET_NO": 999, "REV_AT_EPOCH": 87018, "BSTAR": 0.0002769756, "MEAN_MOTION_DOT": 1.98e-06, "MEAN_MOTION_DDOT": 0}, "tle": {"line1": "1 02965U 67092A   25340.92061517  .00000198  00000+0  27698-3 0  9993", "line2": "2 02965  89.2501  24.8794 0045877 251.9613 283.5157 13.53451420870184"}}, "geometry": {"type": "Point", "coordinates": [24.675871155470393, -12.55546136339575]}}, {"type": "Feature", "properties": {"norad_id": 3133, "name": "OPS 7034 (TRANSIT 18)", "group": "nnss", "lat": 7.586530967914757, "lon": 93.62753232259833, "alt_km": 1015.0970121606351, "timestamp": "2025-12-07T09:35:10.058896+00:00", "meta": {"OBJECT_NAME": "OPS 7034 (TRANSIT 18)", "OBJECT_ID": "1968-012A", "EPOCH": "2025-12-06T20:35:30.297120", "MEAN_MOTION": 13.5156378, "ECCENTRICITY": 0.00733016, "INCLINATION": 90.0273, "RA_OF_ASC_NODE": 273.6224, "ARG_OF_PERICENTER": 186.2499, "MEAN_ANOMALY": 233.3892, "EPHEMERIS_TYPE": 0, "CLASSIFICATION_TYPE": "U", "NORAD_CAT_ID": 3133, "ELEMENT_SET_NO": 999, "REV_AT_EPOCH": 56839, "BSTAR": 0.00028599477, "MEAN_MOTION_DOT": 1.99e-06, "MEAN_MOTION_DDOT": 0}, "tle": {"line1": "1 03133U 68012A   25340.85798955  .00000199  00000+0  28599-3 0  9991", "line2": "2 03133  90.0273 273.6224 0073301 186.2499 233.3892 13.51563780568392"}}, "geometry": {"type": "Point", "coordinates": [93.62753232259833, 7.586530967914757]}}, {"type": "Feature", "properties": {"norad_id": 4507, "name": "NNSS 19 (TRANSIT 19)", "group": "nnss", "lat": 31.794643763238344, "lon": 54.5335372900386, "alt_km": 1185.662978516818, "timestamp": "2025-12-07T09:35:10.058908+00:00", "meta": {"OBJECT_NAME": "NNSS 19 (TRANSIT 19)", "OBJECT_ID": "1970-067A", "EPOCH": "2025-12-06T16:51:03.998304", "MEAN_MOTION": 13.51312853, "ECCENTRICITY": 0.01709451, "INCLINATION": 90.0057, "RA_OF_ASC_NODE": 234.5296, "ARG_OF_PERICENTER": 311.0073, "MEAN_ANOMALY": 47.6401, "EPHEMERIS_TYPE": 0, "CLASSIFICATION_TYPE": "U", "NORAD_CAT_ID": 4507, "ELEMENT_SET_NO": 999, "REV_AT_EPOCH": 72140, "BSTAR": 0.00035878908, "MEAN_MOTION_DOT": 2.63e-06, "MEAN_MOTION_DDOT": 0}, "tle": {"line1": "1 04507U 70067A   25340.70212961  .00000263  00000+0  35879-3 0  9993", "line2": "2 04507  90.0057 234.5296 0170945 311.0073  47.6401 13.51312853721409"}}, "geometry": {"type": "Point", "coordinates": [54.5335372900386, 31.794643763238344]}}, {"type": "Feature", "properties": {"norad_id": 6909, "name": "NNSS 20 (TRANSIT 20)", "group": "nnss", "lat": -17.05352289767181, "lon": 75.17831589525593, "alt_km": 1023.298472365077, "timestamp": "2025-12-07T09:35:10.058919+00:00", "meta": {"OBJECT_NAME": "NNSS 20 (TRANSIT 20)", "OBJECT_ID": "1973-081A", "EPOCH": "2025-12-06T18:38:14.997408", "MEAN_MOTION": 13.71430232, "ECCENTRICITY": 0.0156585, "INCLINATION": 89.856, "RA_OF_ASC_NODE": 255.1435, "ARG_OF_PERICENTER": 95.9669, "MEAN_ANOMALY": 265.9364, "EPHEMERIS_TYPE": 0, "CLASSIFICATION_TYPE": "U", "NORAD_CAT_ID": 6909, "ELEMENT_SET_NO": 999, "REV_AT_EPOCH": 80279, "BSTAR": 0.00036985462, "MEAN_MOTION_DOT": 3.75e-06, "MEAN_MOTION_DDOT": 0}, "tle": {"line1": "1 06909U 73081A   25340.77656247  .00000375  00000+0  36985-3 0  9999", "line2": "2 06909  89.8560 255.1435 0156585  95.9669 265.9364 13.71430232802798"}}, "geometry": {"type": "Point", "coordinates": [75.17831589525593, -17.05352289767181]}}, {"type": "Feature", "properties": {"norad_id": 10457, "name": "TRANSAT", "group": "nnss", "lat": -19.34115488650472, "lon": -101.09039952119036, "alt_km": 1062.8299233855596, "timestamp": "2025-12-07T09:35:10.058931+00:00", "meta": {"OBJECT_NAME": "TRANSAT", "OBJECT_ID": "1977-106A", "EPOCH": "2025-12-06T20:43:57.120384", "MEAN_MOTION": 13.48942269, "ECCENTRICITY": 0.0024853, "INCLINATION": 89.6482, "RA_OF_ASC_NODE": 78.805, "ARG_OF_PERICENTER": 206.7765, "MEAN_ANOMALY": 273.2139, "EPHEMERIS_TYPE": 0, "CLASSIFICATION_TYPE": "U", "NORAD_CAT_ID": 10457, "ELEMENT_SET_NO": 999, "REV_AT_EPOCH": 36664, "BSTAR": 0.00022626173, "MEAN_MOTION_DOT": 1.52e-06, "MEAN_MOTION_DDOT": 0}, "tle": {"line1": "1 10457U 77106A   25340.86385556  .00000152  00000+0  22626-3 0  9996", "line2": "2 10457  89.6482  78.8050 0024853 206.7765 273.2139 13.48942269366649"}}, "geometry": {"type": "Point", "coordinates": [-101.09039952119036, -19.34115488650472]}}, {"type": "Feature", "properties": {"norad_id": 12458, "name": "NOVA 1", "group": "nnss", "lat": -53.76362465378804, "lon": -88.3378366443441, "alt_km": 1184.5968904319825, "timestamp": "2025-12-07T09:35:10.058942+00:00", "meta": {"OBJECT_NAME": "NOVA 1", "OBJECT_ID": "1981-044A", "EPOCH": "2025-12-06T20:18:32.908608", "MEAN_MOTION": 13.23277662, "ECCENTRICITY": 0.00156939, "INCLINATION": 89.8524, "RA_OF_ASC_NODE": 91.4685, "ARG_OF_PERICENTER": 118.4936, "MEAN_ANOMALY": 1.1923, "EPHEMERIS_TYPE": 0, "CLASSIFICATION_TYPE": "U", "NORAD_CAT_ID": 12458, "ELEMENT_SET_NO": 999, "REV_AT_EPOCH": 15108, "BSTAR": 0.00024113294, "MEAN_MOTION_DOT": 1.11e-06, "MEAN_MOTION_DDOT": 0}, "tle": {"line1": "1 12458U 81044A   25340.84621422  .00000111  00000+0  24113-3 0  9996", "line2": "2 12458  89.8524  91.4685 0015693 118.4936   1.1923 13.23277662151087"}}, "geometry": {"type": "Point", "coordinates": [-88.3378366443441, -53.76362465378804]}}, {"type": "Feature", "properties": {"norad_id": 15362, "name": "NOVA 3", "group": "nnss", "lat": 68.96275890498262, "lon": -99.20985701236114, "alt_km": 1179.54144787502, "timestamp": "2025-12-07T09:35:10.058953+00:00", "meta": {"OBJECT_NAME": "NOVA 3", "OBJECT_ID": "1984-110A", "EPOCH": "2025-12-06T20:55:14.773728", "MEAN_MOTION": 13.23043511, "ECCENTRICITY": 0.00309705, "INCLINATION": 90.1224, "RA_OF_ASC_NODE": 80.4655, "ARG_OF_PERICENTER": 348.4563, "MEAN_ANOMALY": 130.1814, "EPHEMERIS_TYPE": 0, "CLASSIFICATION_TYPE": "U", "NORAD_CAT_ID": 15362, "ELEMENT_SET_NO": 999, "REV_AT_EPOCH": 98621, "BSTAR": 0.0002937031, "MEAN_MOTION_DOT": 1.32e-06, "MEAN_MOTION_DDOT": 0}, "tle": {"line1": "1 15362U 84110A   25340.87169877  .00000132  00000+0  29370-3 0  9997", "line2": "2 15362  90.1224  80.4655 0030970 348.4563 130.1814 13.23043511986214"}}, "geometry": {"type": "Point", "coordinates": [-99.20985701236114, 68.96275890498262]}}, {"type": "Feature", "properties": {"norad_id": 15935, "name": "OSCAR 30", "group": "nnss", "lat": -59.534362536411436, "lon": 100.04002972147023, "alt_km": 1248.895167112646, "timestamp": "2025-12-07T09:35:10.058963+00:00", "meta": {"OBJECT_NAME": "OSCAR 30", "OBJECT_ID": "1985-066A", "EPOCH": "2025-12-06T21:53:36.717792", "MEAN_MOTION": 13.36076766, "ECCENTRICITY": 0.0169377, "INCLINATION": 90.1648, "RA_OF_ASC_NODE": 99.7518, "ARG_OF_PERICENTER": 100.1668, "MEAN_ANOMALY": 19.1328, "EPHEMERIS_TYPE": 0, "CLASSIFICATION_TYPE": "U", "NORAD_CAT_ID": 15935, "ELEMENT_SET_NO": 999, "REV_AT_EPOCH": 96375, "BSTAR": 0.00024041486, "MEAN_MOTION_DOT": 1.44e-06, "MEAN_MOTION_DDOT": 0}, "tle": {"line1": "1 15935U 85066A   25340.91223053  .00000144  00000+0  24041-3 0  9999", "line2": "2 15935  90.1648  99.7518 0169377 100.1668  19.1328 13.36076766963756"}}, "geometry": {"type": "Point", "coordinates": [100.04002972147023, -59.534362536411436]}}, {"type": "Feature", "properties": {"norad_id": 15936, "name": "OSCAR 24", "group": "nnss", "lat": 17.275306954349187, "lon": 92.15520671217611, "alt_km": 1117.94402918369, "timestamp": "2025-12-07T09:35:10.058974+00:00", "meta": {"OBJECT_NAME": "OSCAR 24", "OBJECT_ID": "1985-066B", "EPOCH": "2025-12-06T21:29:15.744768", "MEAN_MOTION": 13.35934424, "ECCENTRICITY": 0.01703977, "INCLINATION": 90.1789, "RA_OF_ASC_NODE": 92.202, "ARG_OF_PERICENTER": 106.6531, "MEAN_ANOMALY": 9.6966, "EPHEMERIS_TYPE": 0, "CLASSIFICATION_TYPE": "U", "NORAD_CAT_ID": 15936, "ELEMENT_SET_NO": 999, "REV_AT_EPOCH": 96565, "BSTAR": 0.00022181191, "MEAN_MOTION_DOT": 1.33e-06, "MEAN_MOTION_DDOT": 0}, "tle": {"line1": "1 15936U 85066B   25340.89532112  .00000133  00000+0  22181-3 0  9997", "line2": "2 15936  90.1789  92.2020 0170397 106.6531   9.6966 13.35934424965659"}}, "geometry": {"type": "Point", "coordinates": [92.15520671217611, 17.275306954349187]}}]}